OBJECT_NAME,OBJECT_ID,EPOCH,MEAN_MOTION,ECCENTRICITY,INCLINATION,RA_OF_ASC_NODE,ARG_OF_PERICENTER,MEAN_ANOMALY,EPHEMERIS_TYPE,CLASSIFICATION_TYPE,NORAD_CAT_ID,ELEMENT_SET_NO,REV_AT_EPOCH,BSTAR,MEAN_MOTION_DOT,MEAN_MOTION_DDOT
ONEWEB-0275,2021-060AC,2026-07-11T14:59:12.220800,13.16595426,.00020068,87.9083,223.9221,96.0849,264.0511,0,U,48993,999,24277,.84829633E-4,.45E-6,0
ONEWEB-0276,2021-060AD,2026-07-12T00:54:16.363296,13.16594178,.0001959,87.9082,223.8391,93.9935,266.1420,0,U,48994,999,24284,-.46736E-4,-.5E-7,0
ONEWEB-0277,2021-060AE,2026-07-12T01:12:31.243968,13.16594942,.0002103,87.9067,223.8452,101.5038,258.6330,0,U,48995,999,24283,-.74599E-4,-.16E-6,0
ONEWEB-0278,2021-060AF,2026-07-11T14:02:13.231104,13.16593572,.00023094,87.9078,223.9287,91.2173,268.9223,0,U,48996,999,24290,-.36308934E-4,-.1E-7,0
ONEWEB-0279,2021-060AG,2026-07-12T01:10:13.977696,13.16593667,.0001953,87.9076,223.8342,101.1466,258.9884,0,U,48997,999,24289,-.19056E-4,.6E-7,0
ONEWEB-0280,2021-060AH,2026-07-12T01:31:53.126976,13.16595052,.0002423,87.9076,223.8361,98.8732,261.2673,0,U,48998,999,24283,.25266E-3,.109E-5,0
ONEWEB-0281,2021-060AJ,2026-07-12T01:39:52.128576,13.16592977,.0002003,87.9079,223.8299,91.9456,268.1904,0,U,48999,999,24290,-.78341E-4,-.17E-6,0
ONEWEB-0282,2021-060AK,2026-07-12T00:33:45.050112,13.16594908,.0002095,87.9062,223.8476,91.8964,268.2407,0,U,49000,999,24287,-.45809E-4,-.5E-7,0
ONEWEB-0283,2021-060AL,2026-07-11T15:10:36.346368,13.16593315,.00020119,87.9074,223.9244,97.9916,262.1444,0,U,49001,999,24283,-.22172644E-3,-.72E-6,0
ONEWEB-0284,2021-060AM,2026-07-11T15:01:30.061632,13.16593736,.00023935,87.9083,223.9186,92.4296,267.7109,0,U,49002,999,24281,.18528504E-3,.84E-6,0
ONEWEB-0285,2021-075A,2026-07-11T20:05:47.754528,13.12438263,.00012533,87.8970,345.7590,82.2776,277.8495,0,U,49075,999,23844,-.29709431E-2,-.1056E-4,0
ONEWEB-0286,2021-075B,2026-07-11T19:39:58.290624,13.12441604,.00017754,87.8961,345.7788,89.5201,270.6131,0,U,49076,999,23779,.67149296E-4,.37E-6,0
ONEWEB-0287,2021-075C,2026-07-11T22:07:26.905152,13.17648141,.0001903,87.9141,0.9451,78.0212,282.1132,0,U,49077,999,23688,.20175E-3,.91E-6,0
ONEWEB-0288,2021-075D,2026-07-11T20:55:47.728416,13.12443112,.0001838,87.8960,345.7470,89.7578,270.3761,0,U,49078,999,23842,.16136E-2,.593E-5,0
ONEWEB-0289,2021-075E,2026-07-11T21:13:59.564352,13.17634730,.0002032,87.9155,0.9713,96.9626,263.1737,0,U,49079,999,23745,.59751E-2,.2333E-4,0
ONEWEB-0290,2021-075F,2026-07-11T20:35:06.997632,13.17651238,.00022199,87.9144,0.9489,95.8525,264.2860,0,U,49080,999,23686,.2220896E-3,.99E-6,0
ONEWEB-0291,2021-075G,2026-07-11T22:02:36.506976,13.17646945,.0002095,87.9140,0.9421,85.8336,274.3035,0,U,49081,999,23686,.63565E-4,.38E-6,0
ONEWEB-0293,2021-075H,2026-07-11T20:49:41.446848,13.17650017,.00020846,87.9148,0.9562,93.1638,266.9732,0,U,49082,999,23688,-.18608516E-4,.6E-7,0
ONEWEB-0294,2021-075J,2026-07-11T21:05:33.847008,13.12441154,.0002319,87.8967,345.7498,96.3441,263.7952,0,U,49083,999,23781,.65062E-3,.247E-5,0
ONEWEB-0295,2021-075K,2026-07-11T20:48:29.111040,13.17649794,.00020152,87.9138,0.9589,83.8122,276.3239,0,U,49084,999,23684,.32966141E-4,.26E-6,0
ONEWEB-0296,2021-075L,2026-07-11T20:36:16.799328,13.12444809,.00019333,87.8959,345.7618,86.7642,273.3708,0,U,49085,999,23781,.43215398E-3,.168E-5,0
ONEWEB-0297,2021-075M,2026-07-11T19:30:24.624000,13.12441737,.00021873,87.8957,345.7779,93.7387,266.3991,0,U,49086,999,23841,.63246296E-3,.24E-5,0
ONEWEB-0298,2021-075N,2026-07-11T20:54:46.862208,13.17649532,.0001661,87.9137,0.9562,88.0314,272.1007,0,U,49087,999,23687,.17425E-3,.81E-6,0
ONEWEB-0299,2021-075P,2026-07-11T20:56:59.030016,13.17648435,.0001679,87.9130,0.9371,83.6964,276.4359,0,U,49088,999,23685,.10863E-3,.55E-6,0
ONEWEB-0300,2021-075Q,2026-07-11T19:19:26.162688,13.12441848,.00014608,87.8967,345.7624,91.8207,268.3089,0,U,49089,999,23843,.12252097E-2,.453E-5,0
ONEWEB-0301,2021-075R,2026-07-11T20:46:02.252640,13.12443537,.00015866,87.8974,345.7475,96.0760,264.0550,0,U,49090,999,23780,.71033342E-3,.268E-5,0
ONEWEB-0302,2021-075S,2026-07-11T20:26:31.064352,13.12443113,.000208,87.8954,345.7628,95.0655,265.0711,0,U,49091,999,23778,-.41360364E-3,-.136E-5,0
ONEWEB-0304,2021-075T,2026-07-11T20:20:31.922880,13.17646866,.00016421,87.9112,0.9630,85.7253,274.4067,0,U,49092,999,23682,.77745827E-4,.43E-6,0
ONEWEB-0305,2021-075U,2026-07-11T22:00:09.650304,13.17647984,.0001996,87.9147,0.9363,79.9552,280.1805,0,U,49093,999,23686,-.4115E-4,-.3E-7,0
ONEWEB-0308,2021-075V,2026-07-11T20:16:44.925888,13.12442989,.00015474,87.8949,345.7546,92.7343,267.3963,0,U,49094,999,23779,.14014507E-3,.63E-6,0
