ONEWEB-0275             
1 48993U 21060AC  26192.62444700  .00000045  00000+0  84830-4 0  9994
2 48993  87.9083 223.9221 0002006  96.0849 264.0511 13.16595426242778
ONEWEB-0276             
1 48994U 21060AD  26193.03768939 -.00000005  00000+0 -46736-4 0  9995
2 48994  87.9082 223.8391 0001959  93.9935 266.1420 13.16594178242846
ONEWEB-0277             
1 48995U 21060AE  26193.05036162 -.00000016  00000+0 -74599-4 0  9994
2 48995  87.9067 223.8452 0002103 101.5038 258.6330 13.16594942242834
ONEWEB-0278             
1 48996U 21060AF  26192.58487536 -.00000001  00000+0 -36309-4 0  9998
2 48996  87.9078 223.9287 0002309  91.2173 268.9223 13.16593572242908
ONEWEB-0279             
1 48997U 21060AG  26193.04877289  .00000006  00000+0 -19056-4 0  9993
2 48997  87.9076 223.8342 0001953 101.1466 258.9884 13.16593667242893
ONEWEB-0280             
1 48998U 21060AH  26193.06380934  .00000109  00000+0  25266-3 0  9994
2 48998  87.9076 223.8361 0002423  98.8732 261.2673 13.16595052242833
ONEWEB-0281             
1 48999U 21060AJ  26193.06935334 -.00000017  00000+0 -78341-4 0  9998
2 48999  87.9079 223.8299 0002003  91.9456 268.1904 13.16592977242902
ONEWEB-0282             
1 49000U 21060AK  26193.02343808 -.00000005  00000+0 -45809-4 0  9997
2 49000  87.9062 223.8476 0002095  91.8964 268.2407 13.16594908242870
ONEWEB-0283             
1 49001U 21060AL  26192.63236512 -.00000072  00000+0 -22173-3 0  9999
2 49001  87.9074 223.9244 0002011  97.9916 262.1444 13.16593315242831
ONEWEB-0284             
1 49002U 21060AM  26192.62604238  .00000084  00000+0  18529-3 0  9994
2 49002  87.9083 223.9186 0002393  92.4296 267.7109 13.16593736242815
ONEWEB-0285             
1 49075U 21075A   26192.83735827 -.00001056  00000+0 -29709-2 0  9995
2 49075  87.8970 345.7590 0001253  82.2776 277.8495 13.12438263238448
ONEWEB-0286             
1 49076U 21075B   26192.81942466  .00000037  00000+0  67149-4 0  9991
2 49076  87.8961 345.7788 0001775  89.5201 270.6131 13.12441604237798
ONEWEB-0287             
1 49077U 21075C   26192.92183918  .00000091  00000+0  20175-3 0  9990
2 49077  87.9141   0.9451 0001903  78.0212 282.1132 13.17648141236883
ONEWEB-0288             
1 49078U 21075D   26192.87208019  .00000593  00000+0  16136-2 0  9993
2 49078  87.8960 345.7470 0001838  89.7578 270.3761 13.12443112238429
ONEWEB-0289             
1 49079U 21075E   26192.88471718  .00002333  00000+0  59751-2 0  9997
2 49079  87.9155   0.9713 0002032  96.9626 263.1737 13.17634730237456
ONEWEB-0290             
1 49080U 21075F   26192.85771988  .00000099  00000+0  22209-3 0  9994
2 49080  87.9144   0.9489 0002219  95.8525 264.2860 13.17651238236864
ONEWEB-0291             
1 49081U 21075G   26192.91847809  .00000038  00000+0  63565-4 0  9992
2 49081  87.9140   0.9421 0002095  85.8336 274.3035 13.17646945236863
ONEWEB-0293             
1 49082U 21075H   26192.86784082  .00000006  00000+0 -18609-4 0  9995
2 49082  87.9148   0.9562 0002084  93.1638 266.9732 13.17650017236881
ONEWEB-0294             
1 49083U 21075J   26192.87886397  .00000247  00000+0  65062-3 0  9999
2 49083  87.8967 345.7498 0002319  96.3441 263.7952 13.12441154237814
ONEWEB-0295             
1 49084U 21075K   26192.86700360  .00000026  00000+0  32966-4 0  9997
2 49084  87.9138   0.9589 0002015  83.8122 276.3239 13.17649794236842
ONEWEB-0296             
1 49085U 21075L   26192.85852777  .00000168  00000+0  43215-3 0  9992
2 49085  87.8959 345.7618 0001933  86.7642 273.3708 13.12444809237814
ONEWEB-0297             
1 49086U 21075M   26192.81278500  .00000240  00000+0  63246-3 0  9992
2 49086  87.8957 345.7779 0002187  93.7387 266.3991 13.12441737238417
ONEWEB-0298             
1 49087U 21075N   26192.87137572  .00000081  00000+0  17425-3 0  9993
2 49087  87.9137   0.9562 0001661  88.0314 272.1007 13.17649532236871
ONEWEB-0299             
1 49088U 21075P   26192.87290544  .00000055  00000+0  10863-3 0  9993
2 49088  87.9130   0.9371 0001679  83.6964 276.4359 13.17648435236850
ONEWEB-0300             
1 49089U 21075Q   26192.80516392  .00000453  00000+0  12252-2 0  9994
2 49089  87.8967 345.7624 0001460  91.8207 268.3089 13.12441848238438
ONEWEB-0301             
1 49090U 21075R   26192.86530385  .00000268  00000+0  71033-3 0  9997
2 49090  87.8974 345.7475 0001586  96.0760 264.0550 13.12443537237805
ONEWEB-0302             
1 49091U 21075S   26192.85174843 -.00000136  00000+0 -41360-3 0  9996
2 49091  87.8954 345.7628 0002080  95.0655 265.0711 13.12443113237783
ONEWEB-0304             
1 49092U 21075T   26192.84759170  .00000043  00000+0  77746-4 0  9991
2 49092  87.9112   0.9630 0001642  85.7253 274.4067 13.17646866236824
ONEWEB-0305             
1 49093U 21075U   26192.91677836 -.00000003  00000+0 -41150-4 0  9996
2 49093  87.9147   0.9363 0001996  79.9552 280.1805 13.17647984236865
ONEWEB-0308             
1 49094U 21075V   26192.84496442  .00000063  00000+0  14015-3 0  9994
2 49094  87.8949 345.7546 0001547  92.7343 267.3963 13.12442989237799
